CCSDS_OMM_VERS = 2.0
CREATION_DATE  = 
ORIGINATOR     = 

OBJECT_NAME    = TRANSPORTER-15 Y
OBJECT_ID      = 2025-276Y
CENTER_NAME    = EARTH
REF_FRAME      = TEME
TIME_SYSTEM    = UTC
MEAN_ELEMENT_THEORY = SGP/SGP4

EPOCH          = 2025-12-21T18:40:51.575808
MEAN_MOTION    = 15.17062810
ECCENTRICITY   = .0003629
INCLINATION    = 97.4437
RA_OF_ASC_NODE = 67.3797
ARG_OF_PERICENTER = 253.1367
MEAN_ANOMALY   = 106.9469

EPHEMERIS_TYPE = 0
CLASSIFICATION_TYPE = U
NORAD_CAT_ID   = 66688
ELEMENT_SET_NO = 999
REV_AT_EPOCH   = 349
BSTAR          = .38144E-3
MEAN_MOTION_DOT = .7487E-4
MEAN_MOTION_DDOT = 0

CCSDS_OMM_VERS = 2.0
CREATION_DATE  = 
ORIGINATOR     = 

OBJECT_NAME    = TRANSPORTER-15 Z
OBJECT_ID      = 2025-276Z
CENTER_NAME    = EARTH
REF_FRAME      = TEME
TIME_SYSTEM    = UTC
MEAN_ELEMENT_THEORY = SGP/SGP4

EPOCH          = 2025-12-21T10:41:18.481056
MEAN_MOTION    = 15.17195818
ECCENTRICITY   = .0001372
INCLINATION    = 97.4421
RA_OF_ASC_NODE = 67.0567
ARG_OF_PERICENTER = 282.9898
MEAN_ANOMALY   = 77.1182

EPHEMERIS_TYPE = 0
CLASSIFICATION_TYPE = U
NORAD_CAT_ID   = 66689
ELEMENT_SET_NO = 999
REV_AT_EPOCH   = 344
BSTAR          = .3197E-3
MEAN_MOTION_DOT = .6287E-4
MEAN_MOTION_DDOT = 0

CCSDS_OMM_VERS = 2.0
CREATION_DATE  = 
ORIGINATOR     = 

OBJECT_NAME    = TRANSPORTER-15 AA
OBJECT_ID      = 2025-276AA
CENTER_NAME    = EARTH
REF_FRAME      = TEME
TIME_SYSTEM    = UTC
MEAN_ELEMENT_THEORY = SGP/SGP4

EPOCH          = 2025-12-21T18:40:55.704864
MEAN_MOTION    = 15.17043444
ECCENTRICITY   = .0003593
INCLINATION    = 97.4399
RA_OF_ASC_NODE = 67.3687
ARG_OF_PERICENTER = 252.9568
MEAN_ANOMALY   = 107.1272

EPHEMERIS_TYPE = 0
CLASSIFICATION_TYPE = U
NORAD_CAT_ID   = 66690
ELEMENT_SET_NO = 999
REV_AT_EPOCH   = 349
BSTAR          = .32714E-3
MEAN_MOTION_DOT = .6408E-4
MEAN_MOTION_DDOT = 0

CCSDS_OMM_VERS = 2.0
CREATION_DATE  = 
ORIGINATOR     = 

OBJECT_NAME    = TRANSPORTER-15 AB
OBJECT_ID      = 2025-276AB
CENTER_NAME    = EARTH
REF_FRAME      = TEME
TIME_SYSTEM    = UTC
MEAN_ELEMENT_THEORY = SGP/SGP4

EPOCH          = 2025-12-21T18:38:16.976832
MEAN_MOTION    = 15.17270049
ECCENTRICITY   = .0003703
INCLINATION    = 97.4424
RA_OF_ASC_NODE = 67.3779
ARG_OF_PERICENTER = 254.5474
MEAN_ANOMALY   = 105.5350

EPHEMERIS_TYPE = 0
CLASSIFICATION_TYPE = U
NORAD_CAT_ID   = 66691
ELEMENT_SET_NO = 999
REV_AT_EPOCH   = 349
BSTAR          = .46573E-3
MEAN_MOTION_DOT = .9213E-4
MEAN_MOTION_DDOT = 0

CCSDS_OMM_VERS = 2.0
CREATION_DATE  = 
ORIGINATOR     = 

OBJECT_NAME    = TRANSPORTER-15 AC
OBJECT_ID      = 2025-276AC
CENTER_NAME    = EARTH
REF_FRAME      = TEME
TIME_SYSTEM    = UTC
MEAN_ELEMENT_THEORY = SGP/SGP4

EPOCH          = 2025-12-21T18:33:56.289888
MEAN_MOTION    = 15.17114883
ECCENTRICITY   = .0001987
INCLINATION    = 97.4425
RA_OF_ASC_NODE = 67.3859
ARG_OF_PERICENTER = 209.7052
MEAN_ANOMALY   = 150.4069

EPHEMERIS_TYPE = 0
CLASSIFICATION_TYPE = U
NORAD_CAT_ID   = 66692
ELEMENT_SET_NO = 999
REV_AT_EPOCH   = 349
BSTAR          = -.96276E-2
MEAN_MOTION_DOT = -.186003E-2
MEAN_MOTION_DDOT = 0

CCSDS_OMM_VERS = 2.0
CREATION_DATE  = 
ORIGINATOR     = 

OBJECT_NAME    = TRANSPORTER-15 AD
OBJECT_ID      = 2025-276AD
CENTER_NAME    = EARTH
REF_FRAME      = TEME
TIME_SYSTEM    = UTC
MEAN_ELEMENT_THEORY = SGP/SGP4

EPOCH          = 2025-12-21T18:34:12.965088
MEAN_MOTION    = 15.17568273
ECCENTRICITY   = .0003286
INCLINATION    = 97.4379
RA_OF_ASC_NODE = 67.3669
ARG_OF_PERICENTER = 280.0271
MEAN_ANOMALY   = 80.0591

EPHEMERIS_TYPE = 0
CLASSIFICATION_TYPE = U
NORAD_CAT_ID   = 66693
ELEMENT_SET_NO = 999
REV_AT_EPOCH   = 349
BSTAR          = .63597E-3
MEAN_MOTION_DOT = .12719E-3
MEAN_MOTION_DDOT = 0

CCSDS_OMM_VERS = 2.0
CREATION_DATE  = 
ORIGINATOR     = 

OBJECT_NAME    = YAM-9
OBJECT_ID      = 2025-276AE
CENTER_NAME    = EARTH
REF_FRAME      = TEME
TIME_SYSTEM    = UTC
MEAN_ELEMENT_THEORY = SGP/SGP4

EPOCH          = 2025-12-21T18:31:35.812992
MEAN_MOTION    = 15.17538635
ECCENTRICITY   = .0001429
INCLINATION    = 97.4417
RA_OF_ASC_NODE = 67.3833
ARG_OF_PERICENTER = 268.9826
MEAN_ANOMALY   = 91.1244

EPHEMERIS_TYPE = 0
CLASSIFICATION_TYPE = U
NORAD_CAT_ID   = 66694
ELEMENT_SET_NO = 999
REV_AT_EPOCH   = 349
BSTAR          = .49549E-3
MEAN_MOTION_DOT = .9882E-4
MEAN_MOTION_DDOT = 0

CCSDS_OMM_VERS = 2.0
CREATION_DATE  = 
ORIGINATOR     = 

OBJECT_NAME    = IRIDE FM1
OBJECT_ID      = 2025-276AF
CENTER_NAME    = EARTH
REF_FRAME      = TEME
TIME_SYSTEM    = UTC
MEAN_ELEMENT_THEORY = SGP/SGP4

EPOCH          = 2025-12-21T19:52:03.387072
MEAN_MOTION    = 15.18233992
ECCENTRICITY   = .0001258
INCLINATION    = 97.4407
RA_OF_ASC_NODE = 67.4565
ARG_OF_PERICENTER = 148.4845
MEAN_ANOMALY   = 211.6464

EPHEMERIS_TYPE = 0
CLASSIFICATION_TYPE = U
NORAD_CAT_ID   = 66695
ELEMENT_SET_NO = 999
REV_AT_EPOCH   = 350
BSTAR          = .52185E-3
MEAN_MOTION_DOT = .10622E-3
MEAN_MOTION_DDOT = 0

CCSDS_OMM_VERS = 2.0
CREATION_DATE  = 
ORIGINATOR     = 

OBJECT_NAME    = IRIDE FM2
OBJECT_ID      = 2025-276AG
CENTER_NAME    = EARTH
REF_FRAME      = TEME
TIME_SYSTEM    = UTC
MEAN_ELEMENT_THEORY = SGP/SGP4

EPOCH          = 2025-12-21T18:34:59.863872
MEAN_MOTION    = 15.17369038
ECCENTRICITY   = .0005677
INCLINATION    = 97.4395
RA_OF_ASC_NODE = 67.3714
ARG_OF_PERICENTER = 340.4276
MEAN_ANOMALY   = 19.6738

EPHEMERIS_TYPE = 0
CLASSIFICATION_TYPE = U
NORAD_CAT_ID   = 66696
ELEMENT_SET_NO = 999
REV_AT_EPOCH   = 349
BSTAR          = .20021E-3
MEAN_MOTION_DOT = .3932E-4
MEAN_MOTION_DDOT = 0

CCSDS_OMM_VERS = 2.0
CREATION_DATE  = 
ORIGINATOR     = 

OBJECT_NAME    = IRIDE FM3
OBJECT_ID      = 2025-276AH
CENTER_NAME    = EARTH
REF_FRAME      = TEME
TIME_SYSTEM    = UTC
MEAN_ELEMENT_THEORY = SGP/SGP4

EPOCH          = 2025-12-21T18:18:43.251840
MEAN_MOTION    = 15.18140700
ECCENTRICITY   = .0001123
INCLINATION    = 97.4394
RA_OF_ASC_NODE = 67.3869
ARG_OF_PERICENTER = 158.4445
MEAN_ANOMALY   = 201.6837

EPHEMERIS_TYPE = 0
CLASSIFICATION_TYPE = U
NORAD_CAT_ID   = 66697
ELEMENT_SET_NO = 999
REV_AT_EPOCH   = 349
BSTAR          = .43962E-3
MEAN_MOTION_DOT = .8912E-4
MEAN_MOTION_DDOT = 0

CCSDS_OMM_VERS = 2.0
CREATION_DATE  = 
ORIGINATOR     = 

OBJECT_NAME    = IRIDE FM4
OBJECT_ID      = 2025-276AJ
CENTER_NAME    = EARTH
REF_FRAME      = TEME
TIME_SYSTEM    = UTC
MEAN_ELEMENT_THEORY = SGP/SGP4

EPOCH          = 2025-12-21T18:36:10.177056
MEAN_MOTION    = 15.17296938
ECCENTRICITY   = .0003576
INCLINATION    = 97.4405
RA_OF_ASC_NODE = 67.3710
ARG_OF_PERICENTER = 323.7008
MEAN_ANOMALY   = 36.3983

EPHEMERIS_TYPE = 0
CLASSIFICATION_TYPE = U
NORAD_CAT_ID   = 66698
ELEMENT_SET_NO = 999
REV_AT_EPOCH   = 349
BSTAR          = .20247E-3
MEAN_MOTION_DOT = .3968E-4
MEAN_MOTION_DDOT = 0

CCSDS_OMM_VERS = 2.0
CREATION_DATE  = 
ORIGINATOR     = 

OBJECT_NAME    = IRIDE FM5
OBJECT_ID      = 2025-276AK
CENTER_NAME    = EARTH
REF_FRAME      = TEME
TIME_SYSTEM    = UTC
MEAN_ELEMENT_THEORY = SGP/SGP4

EPOCH          = 2025-12-21T18:35:55.089888
MEAN_MOTION    = 15.17345522
ECCENTRICITY   = .0003141
INCLINATION    = 97.4424
RA_OF_ASC_NODE = 67.3757
ARG_OF_PERICENTER = 262.7795
MEAN_ANOMALY   = 97.3082

EPHEMERIS_TYPE = 0
CLASSIFICATION_TYPE = U
NORAD_CAT_ID   = 66699
ELEMENT_SET_NO = 999
REV_AT_EPOCH   = 349
BSTAR          = .65343E-3
MEAN_MOTION_DOT = .12987E-3
MEAN_MOTION_DDOT = 0

