TRANSPORTER-15 Y        
1 66688U 25276Y   25355.77837472  .00007487  00000+0  38144-3 0  9999
2 66688  97.4437  67.3797 0003629 253.1367 106.9469 15.17062810  3498
TRANSPORTER-15 Z        
1 66689U 25276Z   25355.44535279  .00006287  00000+0  31970-3 0  9991
2 66689  97.4421  67.0567 0001372 282.9898  77.1182 15.17195818  3447
TRANSPORTER-15 AA       
1 66690U 25276AA  25355.77842251  .00006408  00000+0  32714-3 0  9992
2 66690  97.4399  67.3687 0003593 252.9568 107.1272 15.17043444  3493
TRANSPORTER-15 AB       
1 66691U 25276AB  25355.77658538  .00009213  00000+0  46573-3 0  9991
2 66691  97.4424  67.3779 0003703 254.5474 105.5350 15.17270049  3494
TRANSPORTER-15 AC       
1 66692U 25276AC  25355.77356817 -.00186003  00000+0 -96276-2 0  9996
2 66692  97.4425  67.3859 0001987 209.7052 150.4069 15.17114883  3490
TRANSPORTER-15 AD       
1 66693U 25276AD  25355.77376117  .00012719  00000+0  63597-3 0  9993
2 66693  97.4379  67.3669 0003286 280.0271  80.0591 15.17568273  3491
YAM-9                   
1 66694U 25276AE  25355.77194228  .00009882  00000+0  49549-3 0  9993
2 66694  97.4417  67.3833 0001429 268.9826  91.1244 15.17538635  3493
IRIDE FM1               
1 66695U 25276AF  25355.82781698  .00010622  00000+0  52185-3 0  9997
2 66695  97.4407  67.4565 0001258 148.4845 211.6464 15.18233992  3503
IRIDE FM2               
1 66696U 25276AG  25355.77430398  .00003932  00000+0  20021-3 0  9990
2 66696  97.4395  67.3714 0005677 340.4276  19.6738 15.17369038  3494
IRIDE FM3               
1 66697U 25276AH  25355.76300060  .00008912  00000+0  43962-3 0  9994
2 66697  97.4394  67.3869 0001123 158.4445 201.6837 15.18140700  3499
IRIDE FM4               
1 66698U 25276AJ  25355.77511779  .00003968  00000+0  20247-3 0  9994
2 66698  97.4405  67.3710 0003576 323.7008  36.3983 15.17296938  3493
IRIDE FM5               
1 66699U 25276AK  25355.77494317  .00012987  00000+0  65343-3 0  9990
2 66699  97.4424  67.3757 0003141 262.7795  97.3082 15.17345522  3490
